STPSAT-5                
1 43762U 18099E   21215.49759843  .00000069  00000-0  11169-4 0  9996
2 43762  97.6653 286.2674 0012667 251.7846 108.1997 14.96313748145708
POLAR SCOUT KODIAK      
1 43764U 18099G   21215.16629997  .00000354  00000-0  35785-4 0  9995
2 43764  97.6666 286.6593 0014205 251.3876 108.5803 14.97004158145575
HAWK-A                  
1 43765U 18099H   21215.48972940  .00000432  00000-0  43235-4 0  9996
2 43765  97.6606 285.9637 0013238 256.0118 103.9632 14.96347859145584
SPAWAR-CAL-O            
1 43766U 18099J   21215.15457362  .00000454  00000-0  46469-4 0  9993
2 43766  97.6612 283.8268 0009799 250.1097 109.9068 14.95206350145417
CORVUS BC4              
1 43767U 18099K   21215.25727689  .00000375  00000-0  39427-4 0  9995
2 43767  97.6589 283.7378 0010319 248.9371 111.0747 14.94979232145426
AISTECHSAT 2            
1 43768U 18099L   21215.15805646  .00000163  00000-0  20056-4 0  9998
2 43768  97.6599 283.6016 0009924 250.8803 109.1343 14.94945731145122
FLOCK 3S-1              
1 43769U 18099M   21215.50488326 -.00000027  00000-0  27014-5 0  9992
2 43769  97.6602 284.1501 0012671 256.5166 103.4643 14.95350559145489
FOX-1CLIFF (AO-95)      
1 43770U 18099N   21215.15686968  .00000372  00000-0  38785-4 0  9995
2 43770  97.6629 284.3083 0012890 260.5667  99.4097 14.95377714145435
2018-099P               
1 43771U 18099P   21215.13590407  .00000805  00000-0  77828-4 0  9998
2 43771  97.6632 284.3667 0012954 259.8387 100.1373 14.95442644145420
RANGE-A                 
1 43772U 18099Q   21215.17562509  .00000134  00000-0  17186-4 0  9991
2 43772  97.6714 285.3951 0012715 246.0318 113.9572 14.95689768145441
RANGE-B                 
1 43773U 18099R   21215.16593280 -.00000062  00000-0 -45569-6 0  9991
2 43773  97.6561 283.5932 0012076 246.2892 113.7063 14.95255376145425
HIBER-2                 
1 43774U 18099S   21215.50723499  .00000088  00000-0  13059-4 0  9990
2 43774  97.6683 285.4075 0011306 248.0326 111.9694 14.95686979145491
2018-099T               
1 43775U 18099T   21215.16497239 -.00000043  00000-0  12869-5 0  9994
2 43775  97.6631 284.5232 0013118 250.9989 108.9811 14.95321410145437
SPAWAR-CAL-R            
1 43776U 18099U   21215.12815964  .00000322  00000-0  34474-4 0  9994
2 43776  97.6615 284.3483 0013230 250.7304 109.2486 14.95207335145419
LACMA ENOCH             
1 43777U 18099V   21215.17600054  .00057117  00000-0  29797-2 0  9996
2 43777  97.7355 295.1501 0014946 226.5530 133.4459 15.15630083145917
SPAWAR-CAL-OR           
1 43778U 18099W   21215.16478756  .00000028  00000-0  77127-5 0  9990
2 43778  97.6523 283.2641 0012461 255.5990 104.3849 14.95452969145023
2018-099X               
1 43779U 18099X   21215.11522670 -.00000096  00000-0 -35119-5 0  9993
2 43779  97.6619 284.3963 0013239 251.0328 108.9458 14.95255220145419
MOVE-II                 
1 43780U 18099Y   21215.16585676  .00000299  00000-0  31761-4 0  9996
2 43780  97.6649 284.9064 0011833 256.5533 103.4370 14.96012544145456
SNUSAT-2                
1 43782U 18099AA  21215.18212161  .00000114  00000-0  15343-4 0  9990
2 43782  97.6623 284.6906 0011413 244.4966 115.5075 14.95611687145450
KAZSTSAT                
1 43783U 18099AB  21215.18723116  .00000072  00000-0  12110-4 0  9990
2 43783  97.6734 283.8846 0006753 247.5823 112.4682 14.93673451145292
SNUGLITE                
1 43784U 18099AC  21215.18651177  .00000320  00000-0  33837-4 0  9993
2 43784  97.6586 284.4093 0013663 253.1710 106.8013 14.95741406145478
ORBWEAVER 2             
1 43785U 18099AD  21215.17715607  .00000584  00000-0  56339-4 0  9996
2 43785  97.6637 284.9285 0012201 239.3290 120.6729 14.96532053145060
ITASAT 1                
1 43786U 18099AE  21215.20083445  .00000690  00000-0  67108-4 0  9993
2 43786  97.6645 285.0619 0013687 252.1836 107.7892 14.95661770145471
KAZSCISAT-1             
1 43787U 18099AF  21215.17449271  .00000186  00000-0  21587-4 0  9994
2 43787  97.6559 284.2059 0012711 249.0598 110.9263 14.96178575145499
EAGLET-I                
1 43790U 18099AJ  21215.15754324  .00000445  00000-0  44722-4 0  9998
2 43790  97.6640 285.4502 0011799 256.6312 103.3595 14.96015024145193
CAPELLA-1               
1 43791U 18099AK  21215.48318256  .00004940  00000-0  39397-3 0  9990
2 43791  97.6995 291.0085 0008473 290.1760  69.8552 15.00749166145726
ESEO                    
1 43792U 18099AL  21215.21676112  .00000499  00000-0  49867-4 0  9999
2 43792  97.6604 285.0631 0011688 253.1865 106.8075 14.95764195145253
CSIM-FD                 
1 43793U 18099AM  21215.48153420  .00001341  00000-0  12246-3 0  9998
2 43793  97.6639 285.7908 0011318 245.7823 114.2216 14.96678181145303
HAWK-B                  
1 43794U 18099AN  21215.15576431  .00000472  00000-0  46756-4 0  9992
2 43794  97.6606 285.6368 0013300 257.2849 102.6886 14.96348451145528
ORBWEAVER 1             
1 43795U 18099AP  21215.19752426  .00001276  00000-0  11530-3 0  9991
2 43795  97.6649 286.0547 0012145 250.3277 109.6635 14.97164550145543
THEA                    
1 43796U 18099AQ  21215.18029835  .00000038  00000-0  84248-5 0  9995
2 43796  97.6638 285.7496 0013843 234.7624 125.2302 14.96377063144435
SKYSAT-C12              
1 43797U 18099AR  21215.21874638  .00002508  00000-0  66218-4 0  9999
2 43797  97.1705 284.3534 0000813 123.0569 237.0755 15.39379069148507
ASTROCAST 0.1           
1 43798U 18099AS  21215.16702772  .00000020  00000-0  68764-5 0  9999
2 43798  97.6645 285.6750 0010979 233.7893 126.2314 14.96246845145507
HAWK-C                  
1 43799U 18099AT  21215.15556970  .00000459  00000-0  45608-4 0  9993
2 43799  97.6605 285.5515 0013225 257.0959 102.8785 14.96345716146275
ICEYE-X2                
1 43800U 18099AU  21215.49644775  .00000993  00000-0  94460-4 0  9997
2 43800  97.6635 285.0627 0012514 246.8950 113.0931 14.95609978145501
2018-099AV              
1 43801U 18099AV  21215.49889410  .00001275  00000-0  11785-3 0  9997
2 43801  97.6629 285.2212 0012342 242.7496 117.2444 14.96274531145538
SKYSAT-C13              
1 43802U 18099AW  21215.47525981  .00001506  00000-0  47764-4 0  9990
2 43802  97.2020 283.6918 0004292   4.3201 355.8078 15.34224649148169
JY1SAT (JO-97)          
1 43803U 18099AX  21215.15682165  .00000473  00000-0  47355-4 0  9992
2 43803  97.6612 284.7656 0013463 252.5447 107.4303 14.95922439145472
SUOMI-100               
1 43804U 18099AY  21215.16325739  .00000199  00000-0  22856-4 0  9999
2 43804  97.6608 284.7347 0013607 252.9610 107.0121 14.95891049145488
AL-FARABI 2             
1 43805U 18099AZ  21215.55857105  .00001200  00000-0  11161-3 0  9990
2 43805  97.6619 285.3663 0013416 249.3080 110.6701 14.96127326145551
2018-099BA              
1 43806U 18099BA  21215.46937174  .00000357  00000-0  37125-4 0  9997
2 43806  97.6586 284.8729 0013602 248.7086 111.2685 14.95723118145219
EUCROPIS                
1 43807U 18099BB  21215.16321651  .00000214  00000-0  24207-4 0  9991
2 43807  97.6650 285.2320 0011271 247.6212 112.3815 14.95972380144890
POLAR SCOUT YUKON       
1 43808U 18099BC  21215.19261072  .00000519  00000-0  51246-4 0  9996
2 43808  97.6647 285.4019 0010855 257.4979 102.5028 14.96088720145198
CENTAURI-1              
1 43809U 18099BD  21215.17514344 -.00000137  00000-0 -70750-5 0  9998
2 43809  97.6617 285.0574 0013750 254.0974 105.8733 14.95876913145189
2018-099BE              
1 43810U 18099BE  21215.46757234  .00000315  00000-0  33328-4 0  9994
2 43810  97.6485 284.0830 0013217 245.3115 114.6732 14.95781499145086
NEXTSAT-1               
1 43811U 18099BF  21215.52602370  .00000064  00000-0  10837-4 0  9993
2 43811  97.6605 285.3533 0011796 248.5862 111.4119 14.95793430145092
BLACKSKY GLOBAL 2       
1 43812U 18099BG  21215.47150759  .00000701  00000-0  67965-4 0  9999
2 43812  97.6595 285.0679 0012047 251.9766 108.0143 14.95754602145110
BRIO                    
1 43813U 18099BH  21215.47208846  .00001023  00000-0  95105-4 0  9996
2 43813  97.6751 286.9643 0012436 237.6761 122.3257 14.96474485145253
FALCONSAT-6             
1 43815U 18099BK  21215.41857506  .00000495  00000-0  47720-4 0  9997
2 43815  97.6780 285.0044 0019007 243.1535 116.7744 14.97191483145178
SPACEBEE-7              
1 43816U 18099BL  21215.17134742  .00000146  00000-0  17988-4 0  9997
2 43816  97.6664 285.5307 0011973 238.6000 121.4050 14.96201089145049
SPACEBEE-5              
1 43817U 18099BM  21215.47159639  .00001814  00000-0  16043-3 0  9996
2 43817  97.6751 287.2321 0011882 233.2873 126.7259 14.97511284145142
SPACEBEE-6              
1 43818U 18099BN  21215.19050338  .00000764  00000-0  72069-4 0  9996
2 43818  97.6684 285.9790 0012113 237.2117 122.7938 14.96595227145212
EXCITE                  
1 43819U 18099BP  21215.51260656 -.00000210  00000-0 -13788-4 0  9990
2 43819  97.6595 285.0638 0012015 253.2504 106.7399 14.95650915145112
SEAHAWK-1               
1 43820U 18099BQ  21215.22702849  .00000219  00000-0  24667-4 0  9990
2 43820  97.6577 284.6122 0011054 241.6777 118.3329 14.95957980144890
GEO-KOMPSAT-2A          
1 43823U 18100A   21215.52666687 -.00000340  00000-0  00000-0 0  9995
2 43823   0.0483 253.4207 0001185 346.4446  30.3127  1.00272308  9789
GSAT-11                 
1 43824U 18100B   21215.15690843 -.00000074  00000-0  00000-0 0  9990
2 43824   0.0562 265.7624 0007230 203.8530 332.8314  1.00272469  9667
SAUDISAT 5A             
1 43831U 18102A   21215.52505345 -.00000220  00000-0 -10098-4 0  9999
2 43831  97.5326 290.4469 0014315 181.7742 303.2051 15.08345035146246
SAUDISAT 5B             
1 43833U 18102C   21215.50850650  .00000992  00000-0  66995-4 0  9992
2 43833  97.5337 291.0953 0015205 189.6558 295.3392 15.08789036146271
TOMSAT R3 (AEROCUBE 11B)
1 43849U 18104A   21215.19550232  .00001867  00000-0  75602-4 0  9996
2 43849  85.0329 262.8221 0016603 359.8962   0.2275 15.23804164146199
